[{"OBJECT_NAME":"CMS-02 (GSAT 24)","OBJECT_ID":"2022-067A","EPOCH":"2026-03-09T22:47:34.511136","MEAN_MOTION":1.00271702,"ECCENTRICITY":0.00022935,"INCLINATION":0.0327,"RA_OF_ASC_NODE":242.5656,"ARG_OF_PERICENTER":59.4121,"MEAN_ANOMALY":290.5491,"EPHEMERIS_TYPE":0,"CLASSIFICATION_TYPE":"U","NORAD_CAT_ID":52903,"ELEMENT_SET_NO":999,"REV_AT_EPOCH":1361,"BSTAR":0,"MEAN_MOTION_DOT":-1.63e-6,"MEAN_MOTION_DDOT":0},{"OBJECT_NAME":"TELKOM 1","OBJECT_ID":"1999-042A","EPOCH":"2026-03-09T22:47:34.511136","MEAN_MOTION":1.00248994,"ECCENTRICITY":0.00171544,"INCLINATION":7.4343,"RA_OF_ASC_NODE":67.4347,"ARG_OF_PERICENTER":258.4405,"MEAN_ANOMALY":266.9933,"EPHEMERIS_TYPE":0,"CLASSIFICATION_TYPE":"U","NORAD_CAT_ID":25880,"ELEMENT_SET_NO":999,"REV_AT_EPOCH":9739,"BSTAR":0,"MEAN_MOTION_DOT":-1.63e-6,"MEAN_MOTION_DDOT":0}]
